lat=0
lon=0
alt=0
tle_line1="1 00000U 24001A   24310.15069444  .00000000  00000-0  00000-0 0 00014"
tle_line2="2 00000 097.3998 174.6627 0017604 130.9343 144.0104 15.26720093000011"
